{"type": "FeatureCollection", "features": [ {"type": "Feature", "properties": {"norad_id": 33939, "name": "COSMOS 2251 DEB", "group": "cosmos-2251-debris", "lat": -13.886027849033542, "lon": 97.7940551916087, "alt_km": 577.7208286549994, "timestamp": "2025-12-02T07:10:09.509417+00:00", "meta": {"OBJECT_NAME": "COSMOS 2251 DEB", "OBJECT_ID": "1993-036EU", "EPOCH": "2025-12-01T15:12:38.848608", "MEAN_MOTION": 14.98463057, "ECCENTRICITY": 0.00034644, "INCLINATION": 74.006, "RA_OF_ASC_NODE": 103.2103, "ARG_OF_PERICENTER": 131.5579, "MEAN_ANOMALY": 228.5905, "EPHEMERIS_TYPE": 0, "CLASSIFICATION_TYPE": "U", "NORAD_CAT_ID": 33939, "ELEMENT_SET_NO": 999, "REV_AT_EPOCH": 88586, "BSTAR": 0.003718842, "MEAN_MOTION_DOT": 0.00044706, "MEAN_MOTION_DDOT": 0}, "tle": {"line1": "1 33939U 93036EU  25335.63378297  .00044706  00000+0  37188-2 0  9990", "line2": "2 33939  74.0060 103.2103 0003464 131.5579 228.5905 14.98463057885867"}}, "geometry": {"type": "Point", "coordinates": [97.7940551916087, -13.886027849033542]}}, {"type": "Feature", "properties": {"norad_id": 33940, "name": "COSMOS 2251 DEB", "group": "cosmos-2251-debris", "lat": -17.412923112481923, "lon": -11.475788935463534, "alt_km": 696.2356725201644, "timestamp": "2025-12-02T07:10:09.509427+00:00", "meta": {"OBJECT_NAME": "COSMOS 2251 DEB", "OBJECT_ID": "1993-036EV", "EPOCH": "2025-12-01T14:03:37.479744", "MEAN_MOTION": 14.58618522, "ECCENTRICITY": 0.00117804, "INCLINATION": 74.0387, "RA_OF_ASC_NODE": 164.7308, "ARG_OF_PERICENTER": 243.7579, "MEAN_ANOMALY": 172.5838, "EPHEMERIS_TYPE": 0, "CLASSIFICATION_TYPE": "U", "NORAD_CAT_ID": 33940, "ELEMENT_SET_NO": 999, "REV_AT_EPOCH": 88431, "BSTAR": 0.00097095256, "MEAN_MOTION_DOT": 4.499e-05, "MEAN_MOTION_DDOT": 0}, "tle": {"line1": "1 33940U 93036EV  25335.58585046  .00004499  00000+0  97095-3 0  9997", "line2": "2 33940  74.0387 164.7308 0011780 243.7579 172.5838 14.58618522884313"}}, "geometry": {"type": "Point", "coordinates": [-11.475788935463534, -17.412923112481923]}}, {"type": "Feature", "properties": {"norad_id": 33942, "name": "COSMOS 2251 DEB", "group": "cosmos-2251-debris", "lat": 73.47593390469008, "lon": 39.28818860442605, "alt_km": 754.0455276171015, "timestamp": "2025-12-02T07:10:09.509437+00:00", "meta": {"OBJECT_NAME": "COSMOS 2251 DEB", "OBJECT_ID": "1993-036EX", "EPOCH": "2025-12-01T14:50:43.782720", "MEAN_MOTION": 14.3796004, "ECCENTRICITY": 0.00198197, "INCLINATION": 74.036, "RA_OF_ASC_NODE": 295.3101, "ARG_OF_PERICENTER": 21.1932, "MEAN_ANOMALY": 153.3337, "EPHEMERIS_TYPE": 0, "CLASSIFICATION_TYPE": "U", "NORAD_CAT_ID": 33942, "ELEMENT_SET_NO": 999, "REV_AT_EPOCH": 87974, "BSTAR": 0.00027553702, "MEAN_MOTION_DOT": 8.08e-06, "MEAN_MOTION_DDOT": 0}, "tle": {"line1": "1 33942U 93036EX  25335.61856230  .00000808  00000+0  27554-3 0  9992", "line2": "2 33942  74.0360 295.3101 0019819  21.1932 153.3337 14.37960040879744"}}, "geometry": {"type": "Point", "coordinates": [39.28818860442605, 73.47593390469008]}}, {"type": "Feature", "properties": {"norad_id": 33944, "name": "COSMOS 2251 DEB", "group": "cosmos-2251-debris", "lat": -8.06866137036407, "lon": -34.188574436716515, "alt_km": 754.609699809901, "timestamp": "2025-12-02T07:10:09.509448+00:00", "meta": {"OBJECT_NAME": "COSMOS 2251 DEB", "OBJECT_ID": "1993-036EZ", "EPOCH": "2025-12-01T10:12:28.225152", "MEAN_MOTION": 14.3730554, "ECCENTRICITY": 0.01119072, "INCLINATION": 74.0401, "RA_OF_ASC_NODE": 329.7426, "ARG_OF_PERICENTER": 72.3344, "MEAN_ANOMALY": 83.2552, "EPHEMERIS_TYPE": 0, "CLASSIFICATION_TYPE": "U", "NORAD_CAT_ID": 33944, "ELEMENT_SET_NO": 999, "REV_AT_EPOCH": 87865, "BSTAR": 0.00031805938, "MEAN_MOTION_DOT": 9.93e-06, "MEAN_MOTION_DDOT": 0}, "tle": {"line1": "1 33944U 93036EZ  25335.42532668  .00000993  00000+0  31806-3 0  9999", "line2": "2 33944  74.0401 329.7426 0111907  72.3344  83.2552 14.37305540878657"}}, "geometry": {"type": "Point", "coordinates": [-34.188574436716515, -8.06866137036407]}}, {"type": "Feature", "properties": {"norad_id": 33945, "name": "COSMOS 2251 DEB", "group": "cosmos-2251-debris", "lat": -63.31635170287745, "lon": -179.86328277742294, "alt_km": 798.2734399350875, "timestamp": "2025-12-02T07:10:09.509458+00:00", "meta": {"OBJECT_NAME": "COSMOS 2251 DEB", "OBJECT_ID": "1993-036FA", "EPOCH": "2025-12-01T16:37:37.843104", "MEAN_MOTION": 14.3458578, "ECCENTRICITY": 0.0021522, "INCLINATION": 74.0293, "RA_OF_ASC_NODE": 326.5101, "ARG_OF_PERICENTER": 56.3064, "MEAN_ANOMALY": 304.0136, "EPHEMERIS_TYPE": 0, "CLASSIFICATION_TYPE": "U", "NORAD_CAT_ID": 33945, "ELEMENT_SET_NO": 999, "REV_AT_EPOCH": 87857, "BSTAR": 0.00014664, "MEAN_MOTION_DOT": 3.89e-06, "MEAN_MOTION_DDOT": 0}, "tle": {"line1": "1 33945U 93036FA  25335.69279911  .00000389  00000+0  14664-3 0  9990", "line2": "2 33945  74.0293 326.5101 0021522  56.3064 304.0136 14.34585780878572"}}, "geometry": {"type": "Point", "coordinates": [-179.86328277742294, -63.31635170287745]}}, {"type": "Feature", "properties": {"norad_id": 33948, "name": "COSMOS 2251 DEB", "group": "cosmos-2251-debris", "lat": 55.341753643276036, "lon": -11.246976748051221, "alt_km": 752.0879627647928, "timestamp": "2025-12-02T07:10:09.509468+00:00", "meta": {"OBJECT_NAME": "COSMOS 2251 DEB", "OBJECT_ID": "1993-036FD", "EPOCH": "2025-12-01T09:09:20.753280", "MEAN_MOTION": 14.35607139, "ECCENTRICITY": 0.00222581, "INCLINATION": 74.0352, "RA_OF_ASC_NODE": 325.9748, "ARG_OF_PERICENTER": 45.1701, "MEAN_ANOMALY": 315.1255, "EPHEMERIS_TYPE": 0, "CLASSIFICATION_TYPE": "U", "NORAD_CAT_ID": 33948, "ELEMENT_SET_NO": 999, "REV_AT_EPOCH": 87860, "BSTAR": 0.0002268542, "MEAN_MOTION_DOT": 6.3e-06, "MEAN_MOTION_DDOT": 0}, "tle": {"line1": "1 33948U 93036FD  25335.38149020  .00000630  00000+0  22685-3 0  9997", "line2": "2 33948  74.0352 325.9748 0022258  45.1701 315.1255 14.35607139878605"}}, "geometry": {"type": "Point", "coordinates": [-11.246976748051221, 55.341753643276036]}}, {"type": "Feature", "properties": {"norad_id": 33971, "name": "COSMOS 2251 DEB", "group": "cosmos-2251-debris", "lat": -26.093992155761274, "lon": -95.03614955056081, "alt_km": 755.3712539639819, "timestamp": "2025-12-02T07:10:09.509478+00:00", "meta": {"OBJECT_NAME": "COSMOS 2251 DEB", "OBJECT_ID": "1993-036FE", "EPOCH": "2025-12-01T13:46:25.087008", "MEAN_MOTION": 14.39688765, "ECCENTRICITY": 0.00180141, "INCLINATION": 74.0248, "RA_OF_ASC_NODE": 274.368, "ARG_OF_PERICENTER": 17.0994, "MEAN_ANOMALY": 160.779, "EPHEMERIS_TYPE": 0, "CLASSIFICATION_TYPE": "U", "NORAD_CAT_ID": 33971, "ELEMENT_SET_NO": 999, "REV_AT_EPOCH": 87978, "BSTAR": 0.00035479446, "MEAN_MOTION_DOT": 1.086e-05, "MEAN_MOTION_DDOT": 0}, "tle": {"line1": "1 33971U 93036FE  25335.57390147  .00001086  00000+0  35479-3 0  9993", "line2": "2 33971  74.0248 274.3680 0018014  17.0994 160.7790 14.39688765879780"}}, "geometry": {"type": "Point", "coordinates": [-95.03614955056081, -26.093992155761274]}}, {"type": "Feature", "properties": {"norad_id": 33972, "name": "COSMOS 2251 DEB", "group": "cosmos-2251-debris", "lat": 42.377546261830794, "lon": -134.92828067589167, "alt_km": 687.5439061692723, "timestamp": "2025-12-02T07:10:09.509488+00:00", "meta": {"OBJECT_NAME": "COSMOS 2251 DEB", "OBJECT_ID": "1993-036FF", "EPOCH": "2025-12-01T17:53:37.754304", "MEAN_MOTION": 14.36097649, "ECCENTRICITY": 0.0122839, "INCLINATION": 73.9949, "RA_OF_ASC_NODE": 210.9078, "ARG_OF_PERICENTER": 21.1258, "MEAN_ANOMALY": 44.3036, "EPHEMERIS_TYPE": 0, "CLASSIFICATION_TYPE": "U", "NORAD_CAT_ID": 33972, "ELEMENT_SET_NO": 999, "REV_AT_EPOCH": 86916, "BSTAR": 0.0011096, "MEAN_MOTION_DOT": 3.495e-05, "MEAN_MOTION_DDOT": 0}, "tle": {"line1": "1 33972U 93036FF  25335.74557586  .00003495  00000+0  11096-2 0  9999", "line2": "2 33972  73.9949 210.9078 0122839  21.1258  44.3036 14.36097649869167"}}, "geometry": {"type": "Point", "coordinates": [-134.92828067589167, 42.377546261830794]}}, {"type": "Feature", "properties": {"norad_id": 33973, "name": "COSMOS 2251 DEB", "group": "cosmos-2251-debris", "lat": 11.103745698720827, "lon": -60.83994154359362, "alt_km": 765.255868893204, "timestamp": "2025-12-02T07:10:09.509499+00:00", "meta": {"OBJECT_NAME": "COSMOS 2251 DEB", "OBJECT_ID": "1993-036FG", "EPOCH": "2025-12-01T19:17:53.985984", "MEAN_MOTION": 14.45370413, "ECCENTRICITY": 0.004708, "INCLINATION": 74.0066, "RA_OF_ASC_NODE": 123.3101, "ARG_OF_PERICENTER": 303.796, "MEAN_ANOMALY": 172.2689, "EPHEMERIS_TYPE": 0, "CLASSIFICATION_TYPE": "U", "NORAD_CAT_ID": 33973, "ELEMENT_SET_NO": 999, "REV_AT_EPOCH": 88442, "BSTAR": 0.00016258, "MEAN_MOTION_DOT": 5.51e-06, "MEAN_MOTION_DDOT": 0}, "tle": {"line1": "1 33973U 93036FG  25335.80409706  .00000551  00000+0  16258-3 0  9993", "line2": "2 33973  74.0066 123.3101 0047080 303.7960 172.2689 14.45370413884421"}}, "geometry": {"type": "Point", "coordinates": [-60.83994154359362, 11.103745698720827]}}, {"type": "Feature", "properties": {"norad_id": 33975, "name": "COSMOS 2251 DEB", "group": "cosmos-2251-debris", "lat": -3.242658349431042, "lon": 101.86237292883166, "alt_km": 961.5060155604178, "timestamp": "2025-12-02T07:10:09.509509+00:00", "meta": {"OBJECT_NAME": "COSMOS 2251 DEB", "OBJECT_ID": "1993-036FJ", "EPOCH": "2025-12-01T19:11:06.565056", "MEAN_MOTION": 14.00482147, "ECCENTRICITY": 0.0191509, "INCLINATION": 73.801, "RA_OF_ASC_NODE": 103.6834, "ARG_OF_PERICENTER": 238.252, "MEAN_ANOMALY": 119.9829, "EPHEMERIS_TYPE": 0, "CLASSIFICATION_TYPE": "U", "NORAD_CAT_ID": 33975, "ELEMENT_SET_NO": 999, "REV_AT_EPOCH": 85676, "BSTAR": 0.00074765, "MEAN_MOTION_DOT": 1.274e-05, "MEAN_MOTION_DDOT": 0}, "tle": {"line1": "1 33975U 93036FJ  25335.79938154  .00001274  00000+0  74765-3 0  9997", "line2": "2 33975  73.8010 103.6834 0191509 238.2520 119.9829 14.00482147856762"}}, "geometry": {"type": "Point", "coordinates": [101.86237292883166, -3.242658349431042]}}]}